shippingID,streetAddressOne,streetAddressTwo,city,state,zip
1,"133 Coventry Lane",NULL,Longmeadow,MA,01106
2,"513 Fictitious Ln.",NULL,Somerville,MA,2144
3,"777 Fictitious Ln.",NULL,"South Grafton",MA,1560
4,"513 Fictitious Ln.",NULL,Brighton,MA,2135
5,"513 Fictitious Ln.",NULL,Shrewsbury,MA,1545
6,"123 Fake St.",NULL,Groton,MA,1450
7,"123 Fake St.",NULL,"Sotuh Weymouth",MA,2190
8,"23 Imaginary Dr.",NULL,Seattle,WA,98122
9," 99 Mock Ave.",NULL,Sandisfield,MA,1256
10,"14 Imaginary Dr.",NULL,Latham,NY,12110
11,"1822 Fraudulent Rd.",NULL,Wayland,MA,1778
12,"189 Fake St.",NULL,Huntsville,AL,35806
13,"1822 Fraudulent Rd.",NULL,Tewksbury,MA,1876
14," 76 Mock Ave.",NULL,"North Port",NY,11768
15,"23 Imaginary Dr.",NULL,Worcester,MA,1609
16,"1822 Fraudulent Rd.",NULL,Lowell,MA,1850
17," 76 Mock Ave.",NULL,Danbury,CT,6811
18," 99 Mock Ave.",NULL,"Eden Prairie",MN,55344
19,"14 Imaginary Dr.",NULL,"South Bend",IN,46615
20,"14 Imaginary Dr.",NULL,Groton,MA,1450
21,"1822 Fraudulent Rd.",NULL,Machester,NH,3102
22," 99 Mock Ave.",NULL,Lynn,MA,1902
23," 99 Mock Ave.",NULL,"New Haven",CT,6511
24," 99 Mock Ave.",NULL,Ventura,CA,93004
25,"1822 Fraudulent Rd.",NULL,Carolina,RI,2812
26," 76 Mock Ave.",NULL,Worcester,MA,1609
27,"1822 Fraudulent Rd.",NULL,Worcester,MA,1609
28,"123 Fake St.",NULL,"Santa Ana",CA,92705
29,"123 Fake St.",NULL,"Silver Spring",MD,20902
30,"14 Imaginary Dr.",NULL,"Long Island City",NY,11109
31,"123 Fake St.",NULL,"Foster City",CA,94404
32,"777 Fictitious Ln.",NULL,Attleboro,MA,2703
33,"513 Fictitious Ln.",NULL,"South Hadley",MA,1075
34,"1795 Fraudulent Rd.",NULL,Acton,MA,1720
35,"777 Fictitious Ln.",NULL,Melrose,MA,2176
36,"513 Fictitious Ln.",NULL,Orleans,MA,2653
37,"14 Imaginary Dr.",NULL,"South Pasadena",CA,91030
38,"513 Fictitious Ln.",NULL,Murraysville,PA,15632
39,"513 Fictitious Ln.",NULL,Machester,NH,3102
40,"777 Fictitious Ln.",NULL,Riverside,RI,2915
41,"1822 Fraudulent Rd.",NULL,Prospect,CT,6712
42,"777 Fictitious Ln.",NULL,WPI,MA,1609
43,"513 Fictitious Ln.",NULL,Salem,NH,3079
44,"1822 Fraudulent Rd.",NULL,Milford,NH,3055
45,"1795 Fraudulent Rd.",NULL,Fremont,NH,3044
46,"1795 Fraudulent Rd.",NULL,Raynham,MA,2767
47,"23 Imaginary Dr.",NULL,WPI,MA,1609
48,"1795 Fraudulent Rd.",NULL,Alton,NH,3809
49,"513 Fictitious Ln.",NULL,"North Andover",MA,1845
50,"123 Fake St.",NULL,WPI,MA,1609
51," 76 Mock Ave.",NULL,Danvers,MA,1923
52,"777 Fictitious Ln.",NULL,Marlborough,MA,1752
53," 76 Mock Ave.",NULL,Yardley,PN,19067
54," 76 Mock Ave.",NULL,Denver,CO,80211
55,"189 Fake St.",NULL,Granby,CT,6035
56,"1795 Fraudulent Rd.",NULL,Farmington,CT,6032
57,"1795 Fraudulent Rd.",NULL,"Oak Park",IL,60304
58,"777 Fictitious Ln.",NULL,Worcester,MA,1609
59,"777 Fictitious Ln.",NULL,"Wellesley Hills",MA,2481
60," 99 Mock Ave.",NULL,"West Hartford",CT,6119
61,"513 Fictitious Ln.",NULL,Northport,NY,11768
62," 99 Mock Ave.",NULL,Ewing,NJ,8628
63,"189 Fake St.",NULL,Hudson,NH,3051
64," 99 Mock Ave.",NULL,Worcester,MA,1609
65,"14 Imaginary Dr.",NULL,Worcester,MA,1609
66,"513 Fictitious Ln.",NULL,"Glen Rock",NJ,7452
67,"14 Imaginary Dr.",NULL,Hubbardston,MA,1452
68,"189 Fake St.",NULL,Ventura,CA,93004
69,"1822 Fraudulent Rd.",NULL,"South Grafton",MA,1560
70," 76 Mock Ave.",NULL,"South Riding",VA,20152
71," 99 Mock Ave.",NULL,Milford,NH,3055
72,"1822 Fraudulent Rd.",NULL,"San Francisco",CA,94117
73,"1822 Fraudulent Rd.",NULL,Arlington,MA,1890
74,"1795 Fraudulent Rd.",NULL,Plymouth,NH,3264
75,"513 Fictitious Ln.",NULL,"West Warwick",RI,2893
76,"189 Fake St.",NULL,Yardley,PN,19067
77,"777 Fictitious Ln.",NULL,Ewing,NJ,8628
78,"777 Fictitious Ln.",NULL,Worcester,MA,1602
79," 76 Mock Ave.",NULL,Louisville,KY,40245
80," 76 Mock Ave.",NULL,Flinstone,GA,30725
81,"23 Imaginary Dr.",NULL,Fiskdale,MA,1518
82,"1795 Fraudulent Rd.",NULL,Fairfax,VA,22032
83,"1822 Fraudulent Rd.",NULL,Groton,MA,1450
84,"14 Imaginary Dr.",NULL,Northport,NY,11768
85," 99 Mock Ave.",NULL,Bow,NH,3304
86," 76 Mock Ave.",NULL,Somerville,MA,2145
87," 99 Mock Ave.",NULL,Vernon,VM,5354
88,"1795 Fraudulent Rd.",NULL,Ventura,CA,93004
89,"1795 Fraudulent Rd.",NULL,Wallingford,CT,6492
90," 99 Mock Ave.",NULL,Marlborough,MA,1752
91,"189 Fake St.",NULL,"North Grosvenordale",CT,6255
92," 99 Mock Ave.",NULL,Arlington,MA,2476
93," 99 Mock Ave.",NULL,Kingston,WA,98346
94,"189 Fake St.",NULL,Woodstock,CT,6281
95,"123 Fake St.",NULL,Worcester,MA,1609
96,"189 Fake St.",NULL,Worcester,MA,1609
97,"777 Fictitious Ln.",NULL,Wilbraham,MA,1095
98," 99 Mock Ave.",NULL,Sudbury,MA,1776
99,"777 Fictitious Ln.",NULL,"Boytnon Beach",FL,33426
100," 76 Mock Ave.",NULL,"Beacon Falls",CT,6403
101,"1795 Fraudulent Rd.",NULL,Vancouver,WA,98685
102," 76 Mock Ave.",NULL,Gardner,MA,1440
103,"14 Imaginary Dr.",NULL,Memphis,TN,38119
104,"189 Fake St.",NULL,Shrewsbury,MA,1545
105,"513 Fictitious Ln.",NULL,Acton,MA,1720
106," 76 Mock Ave.",NULL,Redmond,WA,98052
107,"123 Fake St.",NULL,"West Hartford",CT,6107
108,"1795 Fraudulent Rd.",NULL,"Feeding Hills",MA,1030
109,"513 Fictitious Ln.",NULL,Harvard,MA,1451
110,"513 Fictitious Ln.",NULL,Worcester,MA,1609
111,"1795 Fraudulent Rd.",NULL,Frederic,MI,49733
112,"1822 Fraudulent Rd.",NULL,"Chestnut Hill",MA,2467
113," 76 Mock Ave.",NULL,"New Boston",NH,3070
114,"23 Imaginary Dr.",NULL,Webster,MA,1570
115,"23 Imaginary Dr.",NULL,Ventura,CA,93004
116,"123 Fake St.",NULL,Auburn,MA,1501
117,"1822 Fraudulent Rd.",NULL,Holden,MA,1520
118,"1795 Fraudulent Rd.",NULL,Shrewsbury,MA,1545
119,"1822 Fraudulent Rd.",NULL,Milford,MA,1757
120,"1822 Fraudulent Rd.",NULL,Auburn,MA,1501
121,"14 Imaginary Dr.",NULL,Westwood,MA,2090
122,"14 Imaginary Dr.",NULL,Worcester,MA,1606
123," 99 Mock Ave.",NULL,Londonderry,NH,3053
124,"1822 Fraudulent Rd.",NULL,Worcester,MA,1602
125,"513 Fictitious Ln.",NULL,Gettysburg,PA,17325
126," 76 Mock Ave.",NULL,Worthington,OH,43085
127,"1795 Fraudulent Rd.",NULL,Webster,MA,1570
128,"777 Fictitious Ln.",NULL,Holden,MA,1520
129,"1795 Fraudulent Rd.",NULL,Falmouth,MA,2540
130," 99 Mock Ave.",NULL,Slidell,LA,70460
131,"189 Fake St.",NULL,Leicester,MA,1524
132,"23 Imaginary Dr.",NULL,Columbia,CT,6237
133,"1822 Fraudulent Rd.",NULL,Burlington,MA,1803
134,"777 Fictitious Ln.",NULL,Seekonk,MA,2771
135,"1822 Fraudulent Rd.",NULL,Fremont,NH,3044
136,"23 Imaginary Dr.",NULL,Sanford,ME,4073
137,"1795 Fraudulent Rd.",NULL,Worcester,MA,1609
138,"123 Fake St.",NULL,Northport,NY,11768
139,"14 Imaginary Dr.",NULL,Newton,MA,2465
140,"14 Imaginary Dr.",NULL,Sutton,MA,1590
141,"189 Fake St.",NULL,Holden,MA,1520
142,"14 Imaginary Dr.",NULL,Holden,MA,1520
143,"1822 Fraudulent Rd.",NULL,Agawam,MA,1001
144,"23 Imaginary Dr.",NULL,Fitchburg,MA,1420
145,"123 Fake St.",NULL,Marshfield,MA,2050
146,"123 Fake St.",NULL,Cohasset,MA,2025
147,"513 Fictitious Ln.",NULL,"Marstons Mills",MA,2648
148,"14 Imaginary Dr.",NULL,Dyer,IN,46311
149,"1795 Fraudulent Rd.",NULL,Berkley,MA,2779
150,"513 Fictitious Ln.",NULL,Dracut,MA,1826
151,"189 Fake St.",NULL,Cambridge,MA,2139
152,"513 Fictitious Ln.",NULL,Salem,MA,1970
153,"1822 Fraudulent Rd.",NULL,"New Boston",NH,3070
154,"777 Fictitious Ln.",NULL,Nasuha,NH,3062
155,"23 Imaginary Dr.",NULL,Tolland,CT,6084
156,"1795 Fraudulent Rd.",NULL,Tiffin,OH,44883
157,"777 Fictitious Ln.",NULL,Carolina,RI,2812
158," 76 Mock Ave.",NULL,"North Kingstown",RI,2852
159," 76 Mock Ave.",NULL,Littleton,MA,1460
160," 76 Mock Ave.",NULL,Worcester,MA,1606
161,"14 Imaginary Dr.",NULL,Ithaca,NY,14850
162,"777 Fictitious Ln.",NULL,Shrewsbury,MA,1545
163,"777 Fictitious Ln.",NULL,Blacksburg,VA,24060
164,"189 Fake St.",NULL,Littleton,MA,1460
165," 76 Mock Ave.",NULL,Groton,MA,1450
166,"189 Fake St.",NULL,Holliston,MA,1746
167,"513 Fictitious Ln.",NULL,Mystic,CT,6355
168,"189 Fake St.",NULL,"Baldwin Place",NY,10505
169,"1822 Fraudulent Rd.",NULL,Cochecton,NY,12726
170,"123 Fake St.",NULL,"Virginia Beach",VA,23455
171,"777 Fictitious Ln.",NULL,Longmeadow,MA,1106
172," 99 Mock Ave.",NULL,Pepperell,MA,1463
173,"189 Fake St.",NULL,Naugatuck,CT,6770
174," 76 Mock Ave.",NULL,Northport,NY,11768
175," 76 Mock Ave.",NULL,Sutton,MA,1590
176,"777 Fictitious Ln.",NULL,"Oak Park",IL,60304
177," 99 Mock Ave.",NULL,Stratham,NH,3885
178,"1822 Fraudulent Rd.",NULL,"Glen Rock",NJ,7452
179,"23 Imaginary Dr.",NULL,Worcester,MA,1604
180,"777 Fictitious Ln.",NULL,Oxford,MA,1450
181," 99 Mock Ave.",NULL,Westfield,MA,1085
182,"1795 Fraudulent Rd.",NULL,Littleton,MA,1460
183,"123 Fake St.",NULL,"West Bridgewater",MA,2379
184,"777 Fictitious Ln.",NULL,Webster,MA,1570
185,"1795 Fraudulent Rd.",NULL,Norfolk,MA,2056
186,"1795 Fraudulent Rd.",NULL,Holden,MA,1520
187,"513 Fictitious Ln.",NULL,Alton,NH,3809
188,"189 Fake St.",NULL,Norkolf,MA,2056
189," 76 Mock Ave.",NULL,"West Newton",MA,2465
190,"14 Imaginary Dr.",NULL,Ventura,CA,93004
191,"1795 Fraudulent Rd.",NULL,Golden,CO,80401
192,"23 Imaginary Dr.",NULL,Quincy,MA,2169
193,"14 Imaginary Dr.",NULL,Saugus,MA,1906
194,"513 Fictitious Ln.",NULL,Saugus,MA,1907
195,"513 Fictitious Ln.",NULL,"East Setauket",NY,11733
196,"513 Fictitious Ln.",NULL,Frederic,MI,49733
197,"123 Fake St.",NULL,Liverpool,NY,13090
198,"777 Fictitious Ln.",NULL,"Charles City",VA,23030
199,"777 Fictitious Ln.",NULL,Acton,MA,1720
200,"14 Imaginary Dr.",NULL,"Bloomfield ",CT,6002
201,"23 Imaginary Dr.",NULL,Shrewsbury,MA,1545
202,"777 Fictitious Ln.",NULL,Agawam,MA,1001
203,"123 Fake St.",NULL,"Shrewsbury ",MA,1545
204,"513 Fictitious Ln.",NULL,Carolina,RI,2813
205,"777 Fictitious Ln.",NULL,"Shrewsbury ",MA,1545
206," 99 Mock Ave.",NULL,Medford,MA,2155
207,"1795 Fraudulent Rd.",NULL,Douglas,MA,2516
208,"513 Fictitious Ln.",NULL,Ellsworth,ME,4605
209,"777 Fictitious Ln.",NULL,Natick,MA,1760
210,"123 Fake St.",NULL,Clinton,MA,1510
211,"1822 Fraudulent Rd.",NULL,Rutland,MA,1543
212,"1822 Fraudulent Rd.",NULL,Watertown,MA,2472
213,"189 Fake St.",NULL,Tewksbury,MA,1876
214," 76 Mock Ave.",NULL,"San Francisco",CA,94127
215,"1795 Fraudulent Rd.",NULL,Indianapolis,IN,46260
216,"777 Fictitious Ln.",NULL,Marshfield,MA,2050
217,"513 Fictitious Ln.",NULL,Sherman,CT,
218,"23 Imaginary Dr.",NULL,"Salt Lake City",UT,84102
219," 99 Mock Ave.",NULL,Fulshear,TX,77441
220,"1795 Fraudulent Rd.",NULL,Sherborn,MA,1770
221,"1822 Fraudulent Rd.",NULL,Norfolk,MA,2056
222,"14 Imaginary Dr.",NULL,Cantonsville,MD,21228
223," 99 Mock Ave.",NULL,"Martons Mills",MA,2648
224,"777 Fictitious Ln.",NULL,Malone,NY,12953
225,"513 Fictitious Ln.",NULL,Framingham,MA,1702
226,"14 Imaginary Dr.",NULL,"South Riding",VA,20152
227,"14 Imaginary Dr.",NULL,Stow,MA,1775
229,"23 Imaginary Dr.",NULL,Burke,VA,22015
230,"1795 Fraudulent Rd.",NULL,Northport,NY,11768
231,"1795 Fraudulent Rd.",NULL,Sturbridge,MA,1566
232," 76 Mock Ave.",NULL,Sudbury,MA,1776
233," 76 Mock Ave.",NULL,Corning,NY,14830
234,"23 Imaginary Dr.",NULL,Huntsville,AL,35803
235,"123 Fake St.",NULL,Hudson,MA,
236,"23 Imaginary Dr.",NULL,Stow,MA,1775
237," 99 Mock Ave.",NULL,Hopkinton,MA,
238," 76 Mock Ave.",NULL,Holden,MA,
239,"777 Fictitious Ln.",NULL,Londonderry,NH,3053
240,"123 Fake St.",NULL,Bedford,NH,3110
241,"777 Fictitious Ln.",NULL,Denver,CO,80212
242,"123 Fake St.",NULL,"Punta Gorda",FL,33590
243,"189 Fake St.",NULL,Harvard,MA,1451
244,"189 Fake St.",NULL,"Rapid City",SD,57702
245,"1795 Fraudulent Rd.",NULL,Philadelphia,PA,19125
246,"14 Imaginary Dr.",NULL,"West Roxbury",MA,2132
247,"777 Fictitious Ln.",NULL,Fremont,NH,3044
248,"123 Fake St.",NULL,Leicester,MA,1524
249,"1822 Fraudulent Rd.",NULL,"San Diego",CA,92131
250,"513 Fictitious Ln.",NULL,Hiram,GA,30141
251,"1795 Fraudulent Rd.",NULL,Winchester,MA,1890
252,"1795 Fraudulent Rd.",NULL,"Jamaica Plain",MA,2130
253,"14 Imaginary Dr.",NULL,Acton,MA,1720
254,"1795 Fraudulent Rd.",NULL,"Rio Rancho",NM,87124
255,"14 Imaginary Dr.",NULL,Newport,RI,2840
256,"1795 Fraudulent Rd.",NULL,Austin,TX,78705
257,"14 Imaginary Dr.",NULL,Anaheim,CA,92805
258,"14 Imaginary Dr.",NULL,Merrick,NY,11566
259,"1795 Fraudulent Rd.",NULL,Biddeford,ME,4005
260,"513 Fictitious Ln.",NULL,Lyman,ME,4002
261,"513 Fictitious Ln.",NULL,Mashpee,MA,2649
262,"777 Fictitious Ln.",NULL,York,MA,3909
263,"1795 Fraudulent Rd.",NULL,Cambridge,MA,2139
264,"513 Fictitious Ln.",NULL,Hudson,NH,3051
265," 99 Mock Ave.",NULL,Harvard,MA,1451
266,"189 Fake St.",NULL,Danbury,CT,6811
267,"14 Imaginary Dr.",NULL,Somerville,MA,2144
268,"777 Fictitious Ln.",NULL,Wellesly,MA,2481
269,"513 Fictitious Ln.",NULL,"South Grafton",MA,1560
270," 76 Mock Ave.",NULL,Yardley,PA,19067
271,"1795 Fraudulent Rd.",NULL,Baltimore,MD,21231
272,"1795 Fraudulent Rd.",NULL,"Palo Alto",CA,94301
273,"1795 Fraudulent Rd.",NULL,Bellingham,WA,98226
274,"1822 Fraudulent Rd.",NULL,Natick,MA,1760
275,"14 Imaginary Dr.",NULL,"Weston ",FL,33327
276,"777 Fictitious Ln.",NULL,Homestead,PA,15120
277,"1795 Fraudulent Rd.",NULL,"Plymouth ",MA,2360
278,"513 Fictitious Ln.",NULL,"Overland Park",KS,66213
279,"777 Fictitious Ln.",NULL,Allston,MA,2134
280,"14 Imaginary Dr.",NULL,Brooklyn,NY,11225
281," 76 Mock Ave.",NULL,Shrewsbury,MA,1545
282,"23 Imaginary Dr.",NULL,Enfield,CT,6082
283,"513 Fictitious Ln.",NULL,Shelburne,VT,5482
284,"777 Fictitious Ln.",NULL,Richardson,TX,75081
285,"123 Fake St.",NULL,"Weston ",MA,2493
286," 76 Mock Ave.",NULL,Harvard,MA,1451
287," 76 Mock Ave.",NULL,Woodbridge,VA,22192
288,"14 Imaginary Dr.",NULL,"Queens ",NY,11102
289," 76 Mock Ave.",NULL,Framingham,MA,1702
290," 76 Mock Ave.",NULL,Longmeadow,MA,11060
291,"14 Imaginary Dr.",NULL,Ashburnham,MA,1430
292," 76 Mock Ave.",NULL,Standish,ME,4084
293,"123 Fake St.",NULL,Davis,CA,95618
294,"777 Fictitious Ln.",NULL,"Santa Anna",CA,92705
295," 76 Mock Ave.",NULL,Dracut,MA,1826
296,"1822 Fraudulent Rd.",NULL,Ithaca,NY,14850
297,"513 Fictitious Ln.",NULL,Glastonbury,CT,6033
298," 76 Mock Ave.",NULL,Wakefield,MA,1880
299,"513 Fictitious Ln.",NULL,Wakefield,MA,1880
300,"777 Fictitious Ln.",NULL,Fairfax,VA,22032
301," 76 Mock Ave.",NULL,Auburndale,MA,2466
302,"777 Fictitious Ln.",NULL,Miami,FL,33137
303,"1822 Fraudulent Rd.",NULL,Boston,MA,2135
304," 99 Mock Ave.",NULL,Hopkinton,MA,1748
305,"1795 Fraudulent Rd.",NULL,Milwaulkee,WI,53202
306,"189 Fake St.",NULL,"Orland Park",IL,60462
307,"123 Fake St.",NULL,Burlington,MA,1803
308,"14 Imaginary Dr.",NULL,Eagle,ID,83616
309,"513 Fictitious Ln.",NULL,Bronx,NY,10461
310,"777 Fictitious Ln.",NULL,Oakdale,CT,6370
311,"123 Fake St.",NULL,"State College",PA,16801
312,"123 Fake St.",NULL,Manchester,NH,3104
313,"14 Imaginary Dr.",NULL,Westfield,NJ,7090
314,"14 Imaginary Dr.",NULL,Milford,CT,6461
315,"123 Fake St.",NULL,"North Hampton",NH,3862
316,"123 Fake St.",NULL,Charlton,MA,1507
317," 99 Mock Ave.",NULL,Philadelphia,PA,19106
318,"14 Imaginary Dr.",NULL,Worcester,MA,1604
319," 76 Mock Ave.",NULL,Larchmont,NY,10538
320,"777 Fictitious Ln.",NULL,Lewes,DE,19958
321,"777 Fictitious Ln.",NULL,"San Fransico",CA,94117
322,"14 Imaginary Dr.",NULL,Sudbury,MA,1776
323,"189 Fake St.",NULL,York,ME,3909
324,"189 Fake St.",NULL,Washington,DC,20024
325,"1822 Fraudulent Rd.",NULL,Huntington,VT,5463
326," 76 Mock Ave.",NULL,"South Miami",FL,33143
327,"123 Fake St.",NULL,"North Chelmsford",MA,1863
328,"23 Imaginary Dr.",NULL,"River Vale",NJ,7675
329," 76 Mock Ave.",NULL,Churchville,MD,21028
330," 99 Mock Ave.",NULL,Providence,RI,2904
331," 99 Mock Ave.",NULL,Holliston,MA,1746
332,"189 Fake St.",NULL,Memphis,TN,38119
333,"23 Imaginary Dr.",NULL,Memphis,TN,38119
334," 99 Mock Ave.",NULL,Memphis,TN,38119
335,"1822 Fraudulent Rd.",NULL,Seattle,WA,98122
336,"1822 Fraudulent Rd.",NULL,"Glenn Rock",NJ,7452
337,"1822 Fraudulent Rd.",NULL,Shrewsbury,MA,1545
338," 99 Mock Ave.",NULL,Webster,MA,1570
339,"123 Fake St.",NULL,"Delray Beach",FL,33446
340,"777 Fictitious Ln.",NULL,Bourne,MA,2532
341,"513 Fictitious Ln.",NULL,"Old Saybrook",CT,6475
342," 76 Mock Ave.",NULL,Carlisle,MA,1741
343,"23 Imaginary Dr.",NULL,"Cedar Knolls",NJ,7927
344,"777 Fictitious Ln.",NULL,Wallingford,CT,6492
345," 76 Mock Ave.",NULL,Hudson,MA,1749
346,"14 Imaginary Dr.",NULL,Pinehurst,NC,28374
347,"189 Fake St.",NULL,"Center Ossipee",NH,3814
348,"23 Imaginary Dr.",NULL,Granville,MA,1034
349,"23 Imaginary Dr.",NULL,Canton,MI,48188
350," 99 Mock Ave.",NULL,Plattsburgh,NY,1903
351,"23 Imaginary Dr.",NULL,Natick,MA,1760
353," 76 Mock Ave.",NULL,Manchester,NH,3102
354,"23 Imaginary Dr.",NULL,Braintree,MA,2184
355,"123 Fake St.",NULL,Strasburg,CO,80136
356,"1822 Fraudulent Rd.",NULL,Woburn,MA,1801
357,"189 Fake St.",NULL,Eagle,ID,83616
358," 99 Mock Ave.",NULL,Chelmsford,MA,1824
359," 76 Mock Ave.",NULL,Hyattesville,MD,20781
360,"1795 Fraudulent Rd.",NULL,Salem,OR,97302
361,"189 Fake St.",NULL,Needham,MA,2492
362," 99 Mock Ave.",NULL,Worcester,MA,1602
363,"14 Imaginary Dr.",NULL,Bristol,RI,2809
364,"1822 Fraudulent Rd.",NULL,Acton,MA,1720
365,"123 Fake St.",NULL,Peterborough,NH,3458
366,"23 Imaginary Dr.",NULL,Syracuse,NY,13219
367,"189 Fake St.",NULL,Adams,MA,1220
368,"513 Fictitious Ln.",NULL,Worcester,MA,1602
369,"777 Fictitious Ln.",NULL,"Glen Rock",NJ,7452
370,"1822 Fraudulent Rd.",NULL,"North Grafton",MA,1536
371,"14 Imaginary Dr.",NULL,"West Boylston",MA,1583
372,"777 Fictitious Ln.",NULL,Lancaster,MA,1523
373,"1795 Fraudulent Rd.",NULL,Worcester,MA,1608
375," 99 Mock Ave.",NULL,Dudley,MA,1571
376,"14 Imaginary Dr.",NULL,"Hopewell Jct",NY,12533
377,"123 Fake St.",NULL,Ithaca,NY,14850
378," 76 Mock Ave.",NULL,Charlestown,RI,2813
379,"23 Imaginary Dr.",NULL,Medford,NJ,8055
380,"777 Fictitious Ln.",NULL,Sparta,NJ,7871
381,"1795 Fraudulent Rd.",NULL,Carver,MA,2330
382,"189 Fake St.",NULL,Bourne,MA,2532
383,"189 Fake St.",NULL,Whitinsville,MA,1588
384,"777 Fictitious Ln.",NULL,Plainville,MA,2762
385,"14 Imaginary Dr.",NULL,Whitinsville,MA,1588
386," 99 Mock Ave.",NULL,Belmont,MA,2478
387,"123 Fake St.",NULL,Ayer,MA,1432
388," 76 Mock Ave.",NULL,Houston,TX,77070
389," 99 Mock Ave.",NULL,Gilford,NH,3249
390," 99 Mock Ave.",NULL,Ayer,MA,1432
391,"777 Fictitious Ln.",NULL,"North Attleboro",MA,2760
392,"1822 Fraudulent Rd.",NULL,Beverly,MA,1915
393,"189 Fake St.",NULL,Concord,NH,3301
394," 76 Mock Ave.",NULL,Evergreen,CO,80439
395," 76 Mock Ave.",NULL,"North Dighton",MA,2764
396," 99 Mock Ave.",NULL,Weymouth,MA,2190
397," 99 Mock Ave.",NULL,Plainville,MA,2762
398,"189 Fake St.",NULL,Medford,NJ,8055
399,"123 Fake St.",NULL,Ventura,CA,93004
400,"189 Fake St.",NULL,Bristol,RI,2809
401," 99 Mock Ave.",NULL,Sturbridge,MA,1566
402," 76 Mock Ave.",NULL,Oxford,MA,1540
403,"513 Fictitious Ln.",NULL,Seminary,MS,39479
404," 76 Mock Ave.",NULL,Worcester,MA,1603
405,"1795 Fraudulent Rd.",NULL,Eagle,ID,63616
406,"1822 Fraudulent Rd.",NULL,Ventura,CA,93004
407,"1795 Fraudulent Rd.",NULL,Harvard,MA,1451
408," 76 Mock Ave.",NULL,Agawam,MA,1001
409,"1795 Fraudulent Rd.",NULL,Braintree,MA,2184
410,"777 Fictitious Ln.",NULL,Jefferson,NH,3583
411,"1795 Fraudulent Rd.",NULL,Worcester,MA,1606
412,"1795 Fraudulent Rd.",NULL,Strafford,NH,3884
413,"513 Fictitious Ln.",NULL,Lincoln,MA,1773
414,"23 Imaginary Dr.",NULL,Eagle,ID,63616
415,"14 Imaginary Dr.",NULL,Englewood,CO,80113
416,"1822 Fraudulent Rd.",NULL,"Palo Alto",CA,94301
417,"1795 Fraudulent Rd.",NULL,Windham,NH,3087
418,"513 Fictitious Ln.",NULL,Fallston,MD,21047
419,"123 Fake St.",NULL,Jackson,NJ,8527
420,"189 Fake St.",NULL,Churchville,MD,21028
421,"1822 Fraudulent Rd.",NULL,Longmeadow,MA,1106
422,"1822 Fraudulent Rd.",NULL,Northborough,MA,1532
423,"777 Fictitious Ln.",NULL,Belmont,MA,2478
424," 76 Mock Ave.",NULL,Remsenberg,NY,11960
425,"23 Imaginary Dr.",NULL,Charlton,MA,1507
426,"14 Imaginary Dr.",NULL,Millis,MA,2054
428,"189 Fake St.",NULL,Southbridge,MA,1550
429,"123 Fake St.",NULL,Nashua,NH,3061
430,"1822 Fraudulent Rd.",NULL,Bristol,VT,5443
431," 99 Mock Ave.",NULL,Brooklyn,NY,11215
432,"189 Fake St.",NULL,Worcester,MA,1605
434,"23 Imaginary Dr.",NULL,"Chapel Hill",NC,27514
436,"1822 Fraudulent Rd.",NULL,Worcester,MA,10609
438,"777 Fictitious Ln.",NULL,"Old Lyme",CT,6371
439," 76 Mock Ave.",NULL,Camillus,NY,13031
440,"513 Fictitious Ln.",NULL,Seattle,WA,98119
441," 76 Mock Ave.",NULL,Houston,TX,77010
442,"23 Imaginary Dr.",NULL,Auburn,AL,36830
443,"1822 Fraudulent Rd.",NULL,"Yorktown Heights",NY,10598
445,"513 Fictitious Ln.",NULL,"Boynton Beach",FL,33474
446,"513 Fictitious Ln.",NULL,"South Berwick",ME,3908
447,"777 Fictitious Ln.",NULL,Leicester,MA,1524
448," 76 Mock Ave.",NULL,Holden,MA,1501
449,"14 Imaginary Dr.",NULL,Northbrook,IL,60602
450,"23 Imaginary Dr.",NULL,"Seneca Falls",NY,13148
451,"513 Fictitious Ln.",NULL,"North Smithfield",RI,2896
452," 99 Mock Ave.",NULL,Braintree,MA,2184
453," 99 Mock Ave.",NULL,Brownsville,TX,78520
454,"14 Imaginary Dr.",NULL,Lynn,MA,1904
456,"23 Imaginary Dr.",NULL,Ashburn,VA,20147
457,"1822 Fraudulent Rd.",NULL,"Ctr Ossippe",NH,3814
458,"513 Fictitious Ln.",NULL,Winston-salem,SC,27105
459,"14 Imaginary Dr.",NULL,Amesbury,MA,1913
460,"123 Fake St.",NULL,"North Andover",MA,1845
461," 76 Mock Ave.",NULL,"Pelham Manor",NY,10803
462,"513 Fictitious Ln.",NULL,Greenbrae,CA,94904
463," 99 Mock Ave.",NULL,Northford,CT,6472
464," 99 Mock Ave.",NULL,Weston,MA,2493
465,"123 Fake St.",NULL,Canton,MI,48188
466,"14 Imaginary Dr.",NULL,Natick,MA,1760
468,"123 Fake St.",NULL,Norfolk,VA,23507
469,"513 Fictitious Ln.",NULL,Gloucester,MA,1930
470,"189 Fake St.",NULL,Belmont,MA,2478
471," 99 Mock Ave.",NULL,Wellesley,MA,2482
472," 99 Mock Ave.",NULL,"Bonny Doone",CA,95060
474,"14 Imaginary Dr.",NULL,Leicester,MA,1524
475,"1795 Fraudulent Rd.",NULL,Marana,AZ,85658
476,"1822 Fraudulent Rd.",NULL,"Blooming Prairie",MN,55917
477," 99 Mock Ave.",NULL,Natick,MA,1760
478,"1822 Fraudulent Rd.",NULL,Worcester,MA,01609
479,"16 Katie Ln",NULL,Davie,FL,33328
